[{"OBJECT_NAME":"STARLINK-33906","OBJECT_ID":"2025-091L","EPOCH":"2025-12-16T05:00:07.737696","MEAN_MOTION":15.27598564,"ECCENTRICITY":0.00015598,"INCLINATION":43.0012,"RA_OF_ASC_NODE":164.092,"ARG_OF_PERICENTER":278.4424,"MEAN_ANOMALY":81.6251,"EPHEMERIS_TYPE":0,"CLASSIFICATION_TYPE":"U","NORAD_CAT_ID":63785,"ELEMENT_SET_NO":999,"REV_AT_EPOCH":3608,"BSTAR":0.00097684869,"MEAN_MOTION_DOT":0.00026731,"MEAN_MOTION_DDOT":0},{"OBJECT_NAME":"STARLINK-33923","OBJECT_ID":"2025-091M","EPOCH":"2025-12-15T21:07:30.343584","MEAN_MOTION":15.2759674,"ECCENTRICITY":0.00016526,"INCLINATION":43.0018,"RA_OF_ASC_NODE":165.9281,"ARG_OF_PERICENTER":269.1053,"MEAN_ANOMALY":90.9609,"EPHEMERIS_TYPE":0,"CLASSIFICATION_TYPE":"U","NORAD_CAT_ID":63786,"ELEMENT_SET_NO":999,"REV_AT_EPOCH":3603,"BSTAR":0.00082808781,"MEAN_MOTION_DOT":0.00022607,"MEAN_MOTION_DDOT":0},{"OBJECT_NAME":"STARLINK-33947","OBJECT_ID":"2025-091N","EPOCH":"2025-12-15T20:04:47.880192","MEAN_MOTION":15.27598443,"ECCENTRICITY":0.00016696,"INCLINATION":42.9996,"RA_OF_ASC_NODE":166.4597,"ARG_OF_PERICENTER":275.1784,"MEAN_ANOMALY":84.8878,"EPHEMERIS_TYPE":0,"CLASSIFICATION_TYPE":"U","NORAD_CAT_ID":63787,"ELEMENT_SET_NO":999,"REV_AT_EPOCH":3607,"BSTAR":0.0005059438,"MEAN_MOTION_DOT":0.00013694,"MEAN_MOTION_DDOT":0},{"OBJECT_NAME":"STARLINK-33882","OBJECT_ID":"2025-091P","EPOCH":"2025-12-16T04:47:09.756672","MEAN_MOTION":15.27602766,"ECCENTRICITY":6.139e-5,"INCLINATION":43.0003,"RA_OF_ASC_NODE":164.0173,"ARG_OF_PERICENTER":263.8903,"MEAN_ANOMALY":96.1878,"EPHEMERIS_TYPE":0,"CLASSIFICATION_TYPE":"U","NORAD_CAT_ID":63788,"ELEMENT_SET_NO":999,"REV_AT_EPOCH":3612,"BSTAR":0.00057832317,"MEAN_MOTION_DOT":0.00015697,"MEAN_MOTION_DDOT":0},{"OBJECT_NAME":"STARLINK-33875","OBJECT_ID":"2025-091Q","EPOCH":"2025-12-16T04:30:31.338144","MEAN_MOTION":15.27603872,"ECCENTRICITY":0.00023006,"INCLINATION":42.9986,"RA_OF_ASC_NODE":163.9256,"ARG_OF_PERICENTER":275.9593,"MEAN_ANOMALY":84.0997,"EPHEMERIS_TYPE":0,"CLASSIFICATION_TYPE":"U","NORAD_CAT_ID":63789,"ELEMENT_SET_NO":999,"REV_AT_EPOCH":3613,"BSTAR":0.00075847115,"MEAN_MOTION_DOT":0.00020684,"MEAN_MOTION_DDOT":0},{"OBJECT_NAME":"STARLINK-33869","OBJECT_ID":"2025-091R","EPOCH":"2025-12-16T04:21:16.171488","MEAN_MOTION":15.27602874,"ECCENTRICITY":0.00012889,"INCLINATION":42.9973,"RA_OF_ASC_NODE":163.8759,"ARG_OF_PERICENTER":266.2573,"MEAN_ANOMALY":93.8131,"EPHEMERIS_TYPE":0,"CLASSIFICATION_TYPE":"U","NORAD_CAT_ID":63790,"ELEMENT_SET_NO":999,"REV_AT_EPOCH":3608,"BSTAR":0.0006142773,"MEAN_MOTION_DOT":0.00016692,"MEAN_MOTION_DDOT":0},{"OBJECT_NAME":"STARLINK-33935","OBJECT_ID":"2025-091S","EPOCH":"2025-12-15T18:25:04.420128","MEAN_MOTION":15.2765208,"ECCENTRICITY":8.659e-5,"INCLINATION":42.9962,"RA_OF_ASC_NODE":166.7968,"ARG_OF_PERICENTER":238.8469,"MEAN_ANOMALY":121.2298,"EPHEMERIS_TYPE":0,"CLASSIFICATION_TYPE":"U","NORAD_CAT_ID":63791,"ELEMENT_SET_NO":999,"REV_AT_EPOCH":3617,"BSTAR":0.0018372296,"MEAN_MOTION_DOT":0.00050755,"MEAN_MOTION_DDOT":0},{"OBJECT_NAME":"STARLINK-33916","OBJECT_ID":"2025-091T","EPOCH":"2025-12-16T05:18:38.196288","MEAN_MOTION":15.27592408,"ECCENTRICITY":0.00015459,"INCLINATION":42.9994,"RA_OF_ASC_NODE":164.1833,"ARG_OF_PERICENTER":262.2535,"MEAN_ANOMALY":97.8141,"EPHEMERIS_TYPE":0,"CLASSIFICATION_TYPE":"U","NORAD_CAT_ID":63792,"ELEMENT_SET_NO":999,"REV_AT_EPOCH":3613,"BSTAR":0.00072244995,"MEAN_MOTION_DOT":0.00019679,"MEAN_MOTION_DDOT":0},{"OBJECT_NAME":"STARLINK-33925","OBJECT_ID":"2025-091U","EPOCH":"2025-12-15T20:36:03.396096","MEAN_MOTION":15.27585527,"ECCENTRICITY":0.00015592,"INCLINATION":42.9985,"RA_OF_ASC_NODE":165.7527,"ARG_OF_PERICENTER":275.8261,"MEAN_ANOMALY":84.2413,"EPHEMERIS_TYPE":0,"CLASSIFICATION_TYPE":"U","NORAD_CAT_ID":63793,"ELEMENT_SET_NO":999,"REV_AT_EPOCH":3619,"BSTAR":0.00086138632,"MEAN_MOTION_DOT":0.00023521,"MEAN_MOTION_DDOT":0},{"OBJECT_NAME":"STARLINK-33870","OBJECT_ID":"2025-091V","EPOCH":"2025-12-16T04:17:34.482048","MEAN_MOTION":15.27587557,"ECCENTRICITY":0.00013408,"INCLINATION":42.9967,"RA_OF_ASC_NODE":163.8601,"ARG_OF_PERICENTER":269.9837,"MEAN_ANOMALY":90.0861,"EPHEMERIS_TYPE":0,"CLASSIFICATION_TYPE":"U","NORAD_CAT_ID":63794,"ELEMENT_SET_NO":999,"REV_AT_EPOCH":3613,"BSTAR":0.00057497444,"MEAN_MOTION_DOT":0.00015597,"MEAN_MOTION_DDOT":0},{"OBJECT_NAME":"STARLINK-33867","OBJECT_ID":"2025-091W","EPOCH":"2025-12-16T05:07:32.463552","MEAN_MOTION":15.27589266,"ECCENTRICITY":0.00015796,"INCLINATION":43.0015,"RA_OF_ASC_NODE":164.1283,"ARG_OF_PERICENTER":267.8279,"MEAN_ANOMALY":92.2392,"EPHEMERIS_TYPE":0,"CLASSIFICATION_TYPE":"U","NORAD_CAT_ID":63795,"ELEMENT_SET_NO":999,"REV_AT_EPOCH":3613,"BSTAR":0.0005904589,"MEAN_MOTION_DOT":0.00016026,"MEAN_MOTION_DDOT":0},{"OBJECT_NAME":"STARLINK-33918","OBJECT_ID":"2025-091X","EPOCH":"2025-12-15T21:18:36.453888","MEAN_MOTION":15.27611307,"ECCENTRICITY":0.00015842,"INCLINATION":43.0022,"RA_OF_ASC_NODE":165.9872,"ARG_OF_PERICENTER":270.0412,"MEAN_ANOMALY":90.0258,"EPHEMERIS_TYPE":0,"CLASSIFICATION_TYPE":"U","NORAD_CAT_ID":63796,"ELEMENT_SET_NO":999,"REV_AT_EPOCH":3613,"BSTAR":0.00086197251,"MEAN_MOTION_DOT":0.00023556,"MEAN_MOTION_DDOT":0},{"OBJECT_NAME":"STARLINK-33712","OBJECT_ID":"2025-091Y","EPOCH":"2025-12-15T19:36:22.937760","MEAN_MOTION":15.27566947,"ECCENTRICITY":0.00011229,"INCLINATION":42.9997,"RA_OF_ASC_NODE":169.8327,"ARG_OF_PERICENTER":263.6586,"MEAN_ANOMALY":96.4137,"EPHEMERIS_TYPE":0,"CLASSIFICATION_TYPE":"U","NORAD_CAT_ID":63797,"ELEMENT_SET_NO":999,"REV_AT_EPOCH":3603,"BSTAR":0.00047955993,"MEAN_MOTION_DOT":0.00012952,"MEAN_MOTION_DDOT":0},{"OBJECT_NAME":"STARLINK-33827","OBJECT_ID":"2025-091Z","EPOCH":"2025-12-15T21:01:57.115200","MEAN_MOTION":15.27567474,"ECCENTRICITY":0.00013632,"INCLINATION":43.0028,"RA_OF_ASC_NODE":165.8947,"ARG_OF_PERICENTER":259.7848,"MEAN_ANOMALY":100.2851,"EPHEMERIS_TYPE":0,"CLASSIFICATION_TYPE":"U","NORAD_CAT_ID":63798,"ELEMENT_SET_NO":999,"REV_AT_EPOCH":3608,"BSTAR":0.00063763281,"MEAN_MOTION_DOT":0.00017319,"MEAN_MOTION_DDOT":0},{"OBJECT_NAME":"STARLINK-33899","OBJECT_ID":"2025-091AA","EPOCH":"2025-12-16T04:41:37.467456","MEAN_MOTION":15.27593072,"ECCENTRICITY":0.00010834,"INCLINATION":42.9993,"RA_OF_ASC_NODE":163.9864,"ARG_OF_PERICENTER":267.3878,"MEAN_ANOMALY":92.685,"EPHEMERIS_TYPE":0,"CLASSIFICATION_TYPE":"U","NORAD_CAT_ID":63799,"ELEMENT_SET_NO":999,"REV_AT_EPOCH":3624,"BSTAR":0.00045524719,"MEAN_MOTION_DOT":0.00012291,"MEAN_MOTION_DDOT":0},{"OBJECT_NAME":"STARLINK-33900","OBJECT_ID":"2025-091AB","EPOCH":"2025-12-16T04:36:04.480128","MEAN_MOTION":15.275976,"ECCENTRICITY":0.00015698,"INCLINATION":42.9984,"RA_OF_ASC_NODE":163.9535,"ARG_OF_PERICENTER":271.6156,"MEAN_ANOMALY":88.4515,"EPHEMERIS_TYPE":0,"CLASSIFICATION_TYPE":"U","NORAD_CAT_ID":63800,"ELEMENT_SET_NO":999,"REV_AT_EPOCH":3624,"BSTAR":0.00062345738,"MEAN_MOTION_DOT":0.00016943,"MEAN_MOTION_DDOT":0}]
