STARLINK-33906          
1 63785U 25091L   25350.20842289  .00026731  00000+0  97685-3 0  9992
2 63785  43.0012 164.0920 0001559 278.4424  81.6251 15.27598564 36086
STARLINK-33923          
1 63786U 25091M   25349.88021231  .00022607  00000+0  82809-3 0  9991
2 63786  43.0018 165.9281 0001652 269.1053  90.9609 15.27596740 36031
STARLINK-33947          
1 63787U 25091N   25349.83666528  .00013694  00000+0  50594-3 0  9993
2 63787  42.9996 166.4597 0001669 275.1784  84.8878 15.27598443 36073
STARLINK-33882          
1 63788U 25091P   25350.19941848  .00015697  00000+0  57832-3 0  9993
2 63788  43.0003 164.0173 0000613 263.8903  96.1878 15.27602766 36120
STARLINK-33875          
1 63789U 25091Q   25350.18786271  .00020684  00000+0  75847-3 0  9998
2 63789  42.9986 163.9256 0002300 275.9593  84.0997 15.27603872 36131
STARLINK-33869          
1 63790U 25091R   25350.18143717  .00016692  00000+0  61428-3 0  9996
2 63790  42.9973 163.8759 0001288 266.2573  93.8131 15.27602874 36084
STARLINK-33935          
1 63791U 25091S   25349.76741227  .00050755  00000+0  18372-2 0  9996
2 63791  42.9962 166.7968 0000865 238.8469 121.2298 15.27652080 36170
STARLINK-33916          
1 63792U 25091T   25350.22127542  .00019679  00000+0  72245-3 0  9998
2 63792  42.9994 164.1833 0001545 262.2535  97.8141 15.27592408 36138
STARLINK-33925          
1 63793U 25091U   25349.85837264  .00023521  00000+0  86139-3 0  9993
2 63793  42.9985 165.7527 0001559 275.8261  84.2413 15.27585527 36199
STARLINK-33870          
1 63794U 25091V   25350.17887132  .00015597  00000+0  57497-3 0  9999
2 63794  42.9967 163.8601 0001340 269.9837  90.0861 15.27587557 36134
STARLINK-33867          
1 63795U 25091W   25350.21357018  .00016026  00000+0  59046-3 0  9990
2 63795  43.0015 164.1283 0001579 267.8279  92.2392 15.27589266 36134
STARLINK-33918          
1 63796U 25091X   25349.88792192  .00023556  00000+0  86197-3 0  9991
2 63796  43.0022 165.9872 0001584 270.0412  90.0258 15.27611307 36136
STARLINK-33712          
1 63797U 25091Y   25349.81693215  .00012952  00000+0  47956-3 0  9999
2 63797  42.9997 169.8327 0001122 263.6586  96.4137 15.27566947 36036
STARLINK-33827          
1 63798U 25091Z   25349.87635550  .00017319  00000+0  63763-3 0  9990
2 63798  43.0028 165.8947 0001363 259.7848 100.2851 15.27567474 36080
STARLINK-33899          
1 63799U 25091AA  25350.19557254  .00012291  00000+0  45525-3 0  9992
2 63799  42.9993 163.9864 0001083 267.3878  92.6850 15.27593072 36248
STARLINK-33900          
1 63800U 25091AB  25350.19171852  .00016943  00000+0  62346-3 0  9999
2 63800  42.9984 163.9535 0001569 271.6156  88.4515 15.27597600 36244
